ONEWEB-0549             
1 56051U 23043F   25006.69656749 -.00000014  00000+0 -64843-4 0  9999
2 56051  87.9307 348.8822 0001682  99.4821 260.6503 13.21827256 89587
ONEWEB-0550             
1 56052U 23043G   25006.38116645  .00000053  00000+0  96143-4 0  9991
2 56052  87.9304 348.9455 0001756  81.7318 278.4015 13.21825230 88635
ONEWEB-0551             
1 56053U 23043H   25006.53428507  .00000105  00000+0  24553-3 0  9995
2 56053  87.9070   4.0923 0001568  93.9370 266.1940 13.15546923 87159
ONEWEB-0552             
1 56054U 23043J   25006.37485648  .00000211  00000+0  47872-3 0  9994
2 56054  87.9304 348.9558 0001529  83.6195 276.5113 13.21825033 88632
ONEWEB-0553             
1 56055U 23043K   25006.37101884  .00000131  00000+0  30914-3 0  9992
2 56055  87.9102 333.7435 0002135  84.0426 276.0948 13.16595286 89653
ONEWEB-0554             
1 56056U 23043L   25006.43433001  .00000220  00000+0  54232-3 0  9997
2 56056  87.9103 333.7572 0001546  62.1973 297.9315 13.16592763 89642
ONEWEB-0555             
1 56057U 23043M   25006.39632648 -.00000125  00000+0 -35971-3 0  9996
2 56057  87.9103 333.7320 0002474  76.6820 283.4587 13.16595410 89649
ONEWEB-0557             
1 56058U 23043N   25006.33458975  .00000076  00000+0  16435-3 0  9997
2 56058  87.9103 333.7687 0002545  65.5314 294.6082 13.16592748 89634
